STARLINK-2035_new
1 17651C 21012AH  21326.14083617 -.00019422  00000-0 -13012-2 0  3266
2 17651  53.0545 273.1155 0002218  56.6693 252.4535 15.06420791    11
STARLINK-2035_old
1 27651C 21012AH  21325.14600747  .00005665  00000-0  37956-3 0  3259
2 27651  53.0545 277.5812 0002229  55.7537 255.3864 15.06392940    19
